#aV2020  3 27  0  0  0.00000000     288 DD+AD WGS84 FIT  NGA
## 2098 432000.00000000   300.00000000 58935 0.0000000000000
+   32     1  2  3  4  5  6  7  8  9 10 11 12 13 14 15 16 17
+         18 19 20 21 22 23 24 25 26 27 28 29 30 31 32  0  0
+          0  0  0  0  0  0  0  0  0  0  0  0  0  0  0  0  0
+          0  0  0  0  0  0  0  0  0  0  0  0  0  0  0  0  0
+          0  0  0  0  0  0  0  0  0  0  0  0  0  0  0  0  0
++         2  2  2  2  2  2  2  2  2  2  2  2  2  2  2  2  2
++         2  2  2  2  2  2  2  2  2  2  2  2  2  2  2  0  0
++         0  0  0  0  0  0  0  0  0  0  0  0  0  0  0  0  0
++         0  0  0  0  0  0  0  0  0  0  0  0  0  0  0  0  0
++         0  0  0  0  0  0  0  0  0  0  0  0  0  0  0  0  0
%c cc cc ccc ccc cccc cccc cccc cccc ccccc ccccc ccccc ccccc
%c cc cc ccc ccc cccc cccc cccc cccc ccccc ccccc ccccc ccccc
%f  0.0000000  0.000000000  0.00000000000  0.000000000000000
%f  0.0000000  0.000000000  0.00000000000  0.000000000000000
%i    0    0    0    0      0      0      0      0         0
%i    0    0    0    0      0      0      0      0         0
/*      NGA, ST. LOUIS,MO.                                  
/*   EPHEMERIS COMPUTED FROM 2 DAYS OF DATA                 
/*   EPOCHA v5 SMOOTHER                                     
/*   G1762 IERS2010 SATAF SATAPC                            
*  2020  3 27  0 30  0.00000000
P  1  20878.381032  12947.036488  10303.299412   -339.052357                    
V  1   7520.831342  11063.120829 -28232.125152     -0.124481                    
P  2 -11373.346403 -21677.881575  11025.554848   -428.869595                    
V  2  10990.190394   7374.971163  27378.417666     -0.065832                    
P  3  14873.199364   2958.732852  21744.040807   -128.544180                    
V  3  -8280.081803  26473.691017   2152.797445     -0.102690                    
P  4  25198.303877   1323.090493   8347.094300    -67.767708                    
V  4  -9939.522654   4455.082956  29304.358616     -0.052170                    
P  5  -4154.800022 -22063.735887 -14168.283390     -9.788303                    
V  5   7291.427368 -16493.766513  23963.862178     -0.006396                    
P  6  -1278.612353 -19456.366758  18070.348482   -239.754192                    
V  6  16309.126970  15992.693997  18470.951856     -0.082040                    
P  7  16312.621459  -3503.543253 -20474.342931   -244.746445                    
V  7  17064.054852  20394.627639   9487.899859     -0.085532                    
P  8  18524.955664   7940.613730 -17405.555308    -28.525238                    
V  8 -21138.249554   6337.048594 -19333.768015     -0.013464                    
P  9  25435.923172  -7417.425209  -2062.382456   -185.009855                    
V  9   3177.488560   2373.841187  31428.021588     -0.080011                    
P 10 -11532.479517  23057.714918  -5767.519189   -290.421531                    
V 10   -403.818485  -7976.376428 -30854.655142     -0.123777                    
P 11  22507.658272  12992.938024  -5131.343651   -322.671945                    
V 11  -7210.442769   1919.888555 -29904.861553      0.107993                    
P 12 -13397.593763  -6112.193902  21873.335534    136.226831                    
V 12  10496.007018 -26263.133928   -738.260777     -0.042688                    
P 13 -10588.268392 -13276.118906 -20564.683824     -2.719338                    
V 13  25625.578779  -3070.121516 -11194.902207      0.029578                    
P 14  -4962.983841  15614.101111  21208.543509    -23.681873                    
V 14 -26060.868787   2706.429291  -8407.648026      0.025135                    
P 15 -19895.475261  -6703.290932 -16792.185859   -242.224625                    
V 15  19029.353084  -8404.546573 -19171.924001      0.026308                    
P 16   2134.392033  21490.361468 -15362.744221   -139.544741                    
V 16  -9187.388186  17038.453161  23314.351418     -0.043128                    
P 17  15361.927671 -13877.235440  17034.513016    238.717730                    
V 17  20728.592556  -2010.531446 -20898.462590      0.063253                    
P 18 -18885.537595  -2093.487640 -18580.272945    133.603264                    
V 18 -14312.896861 -18769.487987  16641.346924      0.144704                    
P 19   7795.918649 -14605.657341  20472.823923   -180.381636                    
V 19  26537.708175  -2125.301812 -11460.066640      0.051395                    
P 20 -14692.386145  15445.186017 -15791.962618    527.852873                    
V 20   1023.696654 -20215.555216 -21041.592404     -0.000114                    
P 21 -14921.987572   5746.606433 -20375.555565    -22.405618                    
V 21 -19243.866075 -20061.573678   8388.401846      0.051039                    
P 22  12595.197143  12280.781315  20152.042369   -785.365124                    
V 22  -6826.801248  24276.092958 -10518.089435      0.002108                    
P 23  25545.655741     39.044124   8314.362123   -126.844540                    
V 23  -9066.422585   4981.080379  28751.956843      0.027453                    
P 24 -21810.864856 -13158.245421   7955.830240    -10.860008                    
V 24  -5218.127380  -9395.252384 -28764.778700     -0.004601                    
P 25 -16334.651988   6638.986052  19539.258502     -6.897837                    
V 25   6528.737147 -24582.750737  13910.123101      0.021383                    
P 26  -3430.601450  25697.806628  -5227.283527    175.462419                    
V 26  -5038.493789   5478.091850  30648.591811      0.074890                    
P 27   7705.265317  13337.110863 -21806.821260   -249.741157                    
V 27 -26608.789980   6023.163614  -5424.527927     -0.106555                    
P 28  12412.779135 -23222.372068  -3420.057165    729.990678                    
V 28     34.212486   5500.962189 -31653.922702     -0.027609                    
P 29 -26272.133332   3961.344467   -199.818543    -66.227918                    
V 29   -493.127313  -1949.456687  32291.909466     -0.091564                    
P 30   7968.850321 -14255.213109 -20882.129850   -184.513387                    
V 30  17899.986546  19840.814743  -6908.536742     -0.086111                    
P 31   2660.649919  20609.646902  16232.631945    -32.017222                    
V 31 -15290.366281 -14387.221182  21171.091478     -0.024769                    
P 32 -13922.269752  15200.010236  16744.237608    245.633081                    
V 32 -21098.713867   2741.162319 -20261.370826      0.088492                    
EOF
